start=new Date('2022-01-30T00:00:00.000Z').valueOf();
sats=[{"MEAN_MOTION_DDOT":"0.0000000000000","MEAN_ELEMENT_THEORY":"SGP4","PERIAPSIS":"546.034","INCLINATION":"53.0537","PERIOD":"95.592","MEAN_ANOMALY":"289.4029","DECAY_DATE":null,"EPHEMERIS_TYPE":"0","TLE_LINE2":"2 47130  53.0537 204.7012 0001717  70.7145 289.4029 15.06396921 65632","NORAD_CAT_ID":"47130","ELEMENT_SET_NO":"999","OBJECT_ID":"2020-088J","TLE_LINE1":"1 47130U 20088J   22029.83865698 -.00000562  00000-0 -18824-4 0  9993","MEAN_MOTION":"15.06396921","OBJECT_TYPE":"PAYLOAD","BSTAR":"-0.00001882400000","FILE":"3287083","GP_ID":"194913573","LAUNCH_DATE":"2020-11-25","SITE":"AFETR","SEMIMAJOR_AXIS":"6925.358","REF_FRAME":"TEME","OBJECT_NAME":"STARLINK-1839","CENTER_NAME":"EARTH","RA_OF_ASC_NODE":"204.7012","REV_AT_EPOCH":"6563","RCS_SIZE":"LARGE","ARG_OF_PERICENTER":"70.7145","TIME_SYSTEM":"UTC","EPOCH":"2022-01-29T20:07:39.963072","CLASSIFICATION_TYPE":"U","APOAPSIS":"548.412","ECCENTRICITY":"0.00017170","MEAN_MOTION_DOT":"-0.00000562","COUNTRY_CODE":"US"},{"LAUNCH_DATE":"2020-11-25","GP_ID":"194819117","OBJECT_NAME":"STARLINK-1840","SITE":"AFETR","SEMIMAJOR_AXIS":"6574.978","REF_FRAME":"TEME","OBJECT_ID":"2020-088K","ELEMENT_SET_NO":"999","FILE":"3286118","BSTAR":"0.00306430000000","OBJECT_TYPE":"PAYLOAD","MEAN_MOTION":"16.28400870","TLE_LINE1":"1 47131U 20088K   22028.73866524  .12430218  12157-4  30643-2 0  9998","NORAD_CAT_ID":"47131","TLE_LINE2":"2 47131  53.0417 116.8249 0006843 357.6139 142.6001 16.28400870 67085","EPHEMERIS_TYPE":"0","MEAN_MOTION_DDOT":"0.0000121570000","DECAY_DATE":null,"MEAN_ANOMALY":"142.6001","PERIOD":"88.430","INCLINATION":"53.0417","MEAN_ELEMENT_THEORY":"SGP4","PERIAPSIS":"192.344","MEAN_MOTION_DOT":"0.12430218","COUNTRY_CODE":"US","EPOCH":"2022-01-28T17:43:40.676736","ECCENTRICITY":"0.00068430","APOAPSIS":"201.342","CLASSIFICATION_TYPE":"U","TIME_SYSTEM":"UTC","ARG_OF_PERICENTER":"357.6139","RCS_SIZE":"LARGE","REV_AT_EPOCH":"6708","RA_OF_ASC_NODE":"116.8249","CENTER_NAME":"EARTH"},{"TLE_LINE2":"2 47133  53.0510 184.6849 0001944  86.2313 273.8898 15.06391245 65917","EPHEMERIS_TYPE":"0","NORAD_CAT_ID":"47133","PERIAPSIS":"545.894","MEAN_ELEMENT_THEORY":"SGP4","INCLINATION":"53.0510","PERIOD":"95.593","MEAN_ANOMALY":"273.8898","DECAY_DATE":null,"MEAN_MOTION_DDOT":"0.0000000000000","SITE":"AFETR","OBJECT_NAME":"STARLINK-1843","SEMIMAJOR_AXIS":"6925.375","REF_FRAME":"TEME","GP_ID":"194914323","LAUNCH_DATE":"2020-11-25","TLE_LINE1":"1 47133U 20088M   22029.84787203 -.00000372  00000-0 -60790-5 0  9991","OBJECT_TYPE":"PAYLOAD","MEAN_MOTION":"15.06391245","BSTAR":"-0.00000607900000","FILE":"3287083","ELEMENT_SET_NO":"999","OBJECT_ID":"2020-088M","REV_AT_EPOCH":"6591","RCS_SIZE":"LARGE","ARG_OF_PERICENTER":"86.2313","TIME_SYSTEM":"UTC","CENTER_NAME":"EARTH","RA_OF_ASC_NODE":"184.6849","COUNTRY_CODE":"US","MEAN_MOTION_DOT":"-0.00000372","CLASSIFICATION_TYPE":"U","APOAPSIS":"548.587","ECCENTRICITY":"0.00019440","EPOCH":"2022-01-29T20:20:56.143392"},{"EPHEMERIS_TYPE":"0","TLE_LINE2":"2 47134  53.0540 194.4943 0001492  81.9637 278.1521 15.06392485 65787","NORAD_CAT_ID":"47134","MEAN_MOTION_DDOT":"0.0000000000000","PERIAPSIS":"546.203","MEAN_ELEMENT_THEORY":"SGP4","INCLINATION":"53.0540","MEAN_ANOMALY":"278.1521","PERIOD":"95.593","DECAY_DATE":null,"GP_ID":"194912571","LAUNCH_DATE":"2020-11-25","OBJECT_NAME":"STARLINK-1844","SITE":"AFETR","SEMIMAJOR_AXIS":"6925.372","REF_FRAME":"TEME","ELEMENT_SET_NO":"999","OBJECT_ID":"2020-088N","TLE_LINE1":"1 47134U 20088N   22029.88749395 -.00000472  00000-0 -12803-4 0  9998","OBJECT_TYPE":"PAYLOAD","MEAN_MOTION":"15.06392485","FILE":"3287083","BSTAR":"-0.00001280300000","REV_AT_EPOCH":"6578","RCS_SIZE":"LARGE","ARG_OF_PERICENTER":"81.9637","TIME_SYSTEM":"UTC","CENTER_NAME":"EARTH","RA_OF_ASC_NODE":"194.4943","MEAN_MOTION_DOT":"-0.00000472","COUNTRY_CODE":"US","EPOCH":"2022-01-29T21:17:59.477280","CLASSIFICATION_TYPE":"U","APOAPSIS":"548.270","ECCENTRICITY":"0.00014920"},{"EPOCH":"2022-01-29T20:10:17.925600","CLASSIFICATION_TYPE":"U","APOAPSIS":"548.611","ECCENTRICITY":"0.00020000","MEAN_MOTION_DOT":"-0.00000722","COUNTRY_CODE":"US","CENTER_NAME":"EARTH","RA_OF_ASC_NODE":"184.7150","RCS_SIZE":"LARGE","REV_AT_EPOCH":"6591","TIME_SYSTEM":"UTC","ARG_OF_PERICENTER":"81.5053","ELEMENT_SET_NO":"999","OBJECT_ID":"2020-088P","OBJECT_TYPE":"PAYLOAD","MEAN_MOTION":"15.06395975","TLE_LINE1":"1 47135U 20088P   22029.84048525 -.00000722  00000-0 -29594-4 0  9995","BSTAR":"-0.00002959400000","FILE":"3287083","LAUNCH_DATE":"2020-11-25","GP_ID":"194912822","SITE":"AFETR","REF_FRAME":"TEME","SEMIMAJOR_AXIS":"6925.361","OBJECT_NAME":"STARLINK-1845","MEAN_MOTION_DDOT":"0.0000000000000","INCLINATION":"53.0547","PERIAPSIS":"545.841","MEAN_ELEMENT_THEORY":"SGP4","DECAY_DATE":null,"PERIOD":"95.592","MEAN_ANOMALY":"278.6162","NORAD_CAT_ID":"47135","EPHEMERIS_TYPE":"0","TLE_LINE2":"2 47135  53.0547 184.7150 0002000  81.5053 278.6162 15.06395975 65919"},{"MEAN_MOTION_DOT":"-0.00000055","COUNTRY_CODE":"US","EPOCH":"2022-01-29T20:08:59.646336","CLASSIFICATION_TYPE":"U","ECCENTRICITY":"0.00022580","APOAPSIS":"548.783","REV_AT_EPOCH":"6577","RCS_SIZE":"LARGE","ARG_OF_PERICENTER":"86.8417","TIME_SYSTEM":"UTC","CENTER_NAME":"EARTH","RA_OF_ASC_NODE":"194.7083","GP_ID":"194914073","LAUNCH_DATE":"2020-11-25","REF_FRAME":"TEME","SITE":"AFETR","SEMIMAJOR_AXIS":"6925.354","OBJECT_NAME":"STARLINK-1846","ELEMENT_SET_NO":"999","OBJECT_ID":"2020-088Q","TLE_LINE1":"1 47136U 20088Q   22029.83957924 -.00000055  00000-0  15237-4 0  9994","OBJECT_TYPE":"PAYLOAD","MEAN_MOTION":"15.06398303","BSTAR":"0.00001523700000","FILE":"3287083","TLE_LINE2":"2 47136  53.0552 194.7083 0002258  86.8417 273.2830 15.06398303 65774","EPHEMERIS_TYPE":"0","NORAD_CAT_ID":"47136","MEAN_MOTION_DDOT":"0.0000000000000","PERIAPSIS":"545.655","MEAN_ELEMENT_THEORY":"SGP4","INCLINATION":"53.0552","MEAN_ANOMALY":"273.2830","PERIOD":"95.592","DECAY_DATE":null},{"ECCENTRICITY":"0.00021550","APOAPSIS":"548.677","CLASSIFICATION_TYPE":"U","EPOCH":"2022-01-29T19:43:46.140384","COUNTRY_CODE":"US","MEAN_MOTION_DOT":"-0.00000143","RA_OF_ASC_NODE":"184.7855","CENTER_NAME":"EARTH","ARG_OF_PERICENTER":"86.2102","TIME_SYSTEM":"UTC","REV_AT_EPOCH":"6591","RCS_SIZE":"LARGE","BSTAR":"0.00000933470000","FILE":"3287083","TLE_LINE1":"1 47137U 20088R   22029.82206181 -.00000143  00000-0  93347-5 0  9993","OBJECT_TYPE":"PAYLOAD","MEAN_MOTION":"15.06409435","OBJECT_ID":"2020-088R","ELEMENT_SET_NO":"999","SITE":"AFETR","REF_FRAME":"TEME","SEMIMAJOR_AXIS":"6925.320","OBJECT_NAME":"STARLINK-1849","GP_ID":"194913824","LAUNCH_DATE":"2020-11-25","PERIOD":"95.592","MEAN_ANOMALY":"273.9134","DECAY_DATE":null,"MEAN_ELEMENT_THEORY":"SGP4","PERIAPSIS":"545.692","INCLINATION":"53.0540","MEAN_MOTION_DDOT":"0.0000000000000","TLE_LINE2":"2 47137  53.0540 184.7855 0002155  86.2102 273.9134 15.06409435 65918","EPHEMERIS_TYPE":"0","NORAD_CAT_ID":"47137"},{"SITE":"AFETR","SEMIMAJOR_AXIS":"6925.334","REF_FRAME":"TEME","OBJECT_NAME":"STARLINK-1850","GP_ID":"194913071","LAUNCH_DATE":"2020-11-25","TLE_LINE1":"1 47138U 20088S   22029.85568148  .00001944  00000-0  14933-3 0  9992","OBJECT_TYPE":"PAYLOAD","MEAN_MOTION":"15.06404729","BSTAR":"0.00014933000000","FILE":"3287083","ELEMENT_SET_NO":"999","OBJECT_ID":"2020-088S","EPHEMERIS_TYPE":"0","TLE_LINE2":"2 47138  53.0554 189.6301 0001658  82.2423 277.8754 15.06404729 65858","NORAD_CAT_ID":"47138","PERIAPSIS":"546.051","MEAN_ELEMENT_THEORY":"SGP4","INCLINATION":"53.0554","MEAN_ANOMALY":"277.8754","PERIOD":"95.592","DECAY_DATE":null,"MEAN_MOTION_DDOT":"0.0000000000000","COUNTRY_CODE":"US","MEAN_MOTION_DOT":"0.00001944","CLASSIFICATION_TYPE":"U","ECCENTRICITY":"0.00016580","APOAPSIS":"548.347","EPOCH":"2022-01-29T20:32:10.879872","REV_AT_EPOCH":"6585","RCS_SIZE":"LARGE","ARG_OF_PERICENTER":"82.2423","TIME_SYSTEM":"UTC","CENTER_NAME":"EARTH","RA_OF_ASC_NODE":"189.6301"},{"RCS_SIZE":"LARGE","REV_AT_EPOCH":"6570","TIME_SYSTEM":"UTC","ARG_OF_PERICENTER":"80.7758","CENTER_NAME":"EARTH","RA_OF_ASC_NODE":"199.6615","MEAN_MOTION_DOT":"0.00002788","COUNTRY_CODE":"US","EPOCH":"2022-01-29T20:25:32.263104","CLASSIFICATION_TYPE":"U","APOAPSIS":"548.512","ECCENTRICITY":"0.00018970","NORAD_CAT_ID":"47139","EPHEMERIS_TYPE":"0","TLE_LINE2":"2 47139  53.0537 199.6615 0001897  80.7758 279.3446 15.06404837 65707","MEAN_MOTION_DDOT":"0.0000000000000","INCLINATION":"53.0537","MEAN_ELEMENT_THEORY":"SGP4","PERIAPSIS":"545.885","DECAY_DATE":null,"MEAN_ANOMALY":"279.3446","PERIOD":"95.592","LAUNCH_DATE":"2020-11-25","GP_ID":"194913322","SEMIMAJOR_AXIS":"6925.334","SITE":"AFETR","REF_FRAME":"TEME","OBJECT_NAME":"STARLINK-1852","ELEMENT_SET_NO":"999","OBJECT_ID":"2020-088T","OBJECT_TYPE":"PAYLOAD","MEAN_MOTION":"15.06404837","TLE_LINE1":"1 47139U 20088T   22029.85106786  .00002788  00000-0  20594-3 0  9996","BSTAR":"0.00020594000000","FILE":"3287083"},{"CLASSIFICATION_TYPE":"U","APOAPSIS":"548.406","ECCENTRICITY":"0.00017400","EPOCH":"2022-01-29T19:06:37.333152","COUNTRY_CODE":"US","MEAN_MOTION_DOT":"-0.00000809","CENTER_NAME":"EARTH","RA_OF_ASC_NODE":"184.8984","REV_AT_EPOCH":"6591","RCS_SIZE":"LARGE","ARG_OF_PERICENTER":"84.7839","TIME_SYSTEM":"UTC","TLE_LINE1":"1 47141U 20088V   22029.79626543 -.00000809  00000-0 -35434-4 0  9994","OBJECT_TYPE":"PAYLOAD","MEAN_MOTION":"15.06404079","FILE":"3287083","BSTAR":"-0.00003543400000","ELEMENT_SET_NO":"999","OBJECT_ID":"2020-088V","REF_FRAME":"TEME","SITE":"AFETR","SEMIMAJOR_AXIS":"6925.336","OBJECT_NAME":"STARLINK-1854","GP_ID":"194913574","LAUNCH_DATE":"2020-11-25","PERIAPSIS":"545.996","MEAN_ELEMENT_THEORY":"SGP4","INCLINATION":"53.0587","PERIOD":"95.592","MEAN_ANOMALY":"275.3349","DECAY_DATE":null,"MEAN_MOTION_DDOT":"0.0000000000000","TLE_LINE2":"2 47141  53.0587 184.8984 0001740  84.7839 275.3349 15.06404079 65910","EPHEMERIS_TYPE":"0","NORAD_CAT_ID":"47141"}];
